{
    "CCSDS_OMM_VERS": "3.0",
    "COMMENT": "GENERATED VIA SPACE-TRACK.ORG API",
    "CREATION_DATE": "2025-11-24T07:26:19",
    "ORIGINATOR": "18 SPCS",
    "OBJECT_NAME": "COSMOS 2522 (GLONASS)",
    "OBJECT_ID": "2017-055A",
    "CENTER_NAME": "EARTH",
    "REF_FRAME": "TEME",
    "TIME_SYSTEM": "UTC",
    "MEAN_ELEMENT_THEORY": "SGP4",
    "EPOCH": "2025-11-24T01:21:51.354432",
    "MEAN_MOTION": "2.13101963",
    "ECCENTRICITY": "0.00067380",
    "INCLINATION": "64.0754",
    "RA_OF_ASC_NODE": "198.8655",
    "ARG_OF_PERICENTER": "227.6607",
    "MEAN_ANOMALY": "132.3771",
    "EPHEMERIS_TYPE": "0",
    "CLASSIFICATION_TYPE": "U",
    "NORAD_CAT_ID": "42939",
    "ELEMENT_SET_NO": "999",
    "REV_AT_EPOCH": "6360",
    "BSTAR": "0.00000000000000",
    "MEAN_MOTION_DOT": "0.00000060",
    "MEAN_MOTION_DDOT": "0.0000000000000",
    "SEMIMAJOR_AXIS": "25508.027",
    "PERIOD": "675.733",
    "APOAPSIS": "19147.080",
    "PERIAPSIS": "19112.705",
    "OBJECT_TYPE": "PAYLOAD",
    "RCS_SIZE": "LARGE",
    "COUNTRY_CODE": "CIS",
    "LAUNCH_DATE": "2017-09-22",
    "SITE": "PKMTR",
    "DECAY_DATE": null,
    "FILE": "4896987",
    "GP_ID": "303366674",
    "TLE_LINE0": "0 COSMOS 2522 (GLONASS)",
    "TLE_LINE1": "1 42939U 17055A   25328.05684438  .00000060  00000-0  00000+0 0  9998",
    "TLE_LINE2": "2 42939  64.0754 198.8655 0006738 227.6607 132.3771  2.13101963 63606"
}